     3.04           N: GNSS NAV DATA    M: MIXED            RINEX VERSION / TYPE
ssrcrin-15.6.1x                         20250101 101500 UTC PGM / RUN BY / DATE 
    18                                                      LEAP SECONDS        
                                                            END OF HEADER       
E25 2025 01 01 10 10 00 1.283676829189E-05 3.979039320257E-13 0.000000000000E+00
     1.120000000000E+02-1.740625000000E+01 3.307637776390E-09 1.177935161088E+00
    -8.400529623032E-07 2.109879860654E-04 7.104128599167E-06 5.440601436615E+03
     2.958000000000E+05 1.303851604462E-08 2.413666761537E+00-4.656612873077E-08
     9.642517599276E-01 1.934687500000E+02 3.884299561239E-01-5.407010937995E-09
    -7.114582065186E-10 2.580000000000E+02 2.347000000000E+03
     3.120000000000E+00 0.000000000000E+00 2.328306436539E-10 0.000000000000E+00
     2.968900000000E+05
S44 2025 01 01 10 28 16 8.428469300270E-07 0.000000000000E+00 2.969120000000E+05
     7.249415600000E+03-1.577500000000E-03 3.125000000000E-07 6.300000000000E+01
     4.149821640000E+04 4.495000000000E-03 6.250000000000E-08 3.276700000000E+04
    -1.630784000000E+03 7.464800000000E-02 4.312500000000E-06 6.000000000000E+01
E08 2025 01 01 10 10 00-3.933332045563E-04-6.210143510543E-12 0.000000000000E+00
     1.120000000000E+02-1.804687500000E+02 2.672611324989E-09 1.442223176373E+00
    -8.229166269302E-06 1.743810717016E-04 1.187995076180E-05 5.440625886917E+03
     2.958000000000E+05-2.048909664154E-08 3.141099799415E-01 3.166496753693E-08
     9.694222551624E-01 8.968750000000E+01 6.588963396659E-01-5.171286833425E-09
     3.417999516257E-10 5.170000000000E+02 2.347000000000E+03
     3.120000000000E+00 0.000000000000E+00-5.820766091347E-09-5.820766091347E-09
     2.969150000000E+05
S23 2025 01 01 10 28 32 0.000000000000E+00 0.000000000000E+00 2.969270000000E+05
     3.866796400000E+04 0.000000000000E+00 0.000000000000E+00 6.300000000000E+01
     1.681330800000E+04 0.000000000000E+00 0.000000000000E+00 3.276700000000E+04
     0.000000000000E+00 0.000000000000E+00 0.000000000000E+00 3.000000000000E+01
R04 2025 01 01 10 15 00 2.708006650209E-04 1.818989403546E-12 2.969100000000E+05
    -1.189334912109E+04 2.428668022156E+00-3.725290298462E-09 0.000000000000E+00
    -1.253159960938E+04 8.471593856812E-01-2.793967723846E-09 6.000000000000E+00
     1.880534765625E+04 2.101887702942E+00 9.313225746155E-10 0.000000000000E+00
S36 2025 01 01 10 29 04 0.000000000000E+00 0.000000000000E+00 2.969510000000E+05
     4.200368800000E+04 0.000000000000E+00 0.000000000000E+00 6.300000000000E+01
     3.674846960000E+03 0.000000000000E+00 0.000000000000E+00 3.276700000000E+04
     0.000000000000E+00 0.000000000000E+00 0.000000000000E+00 1.430000000000E+02
E08 2025 01 01 10 10 00-3.933334955946E-04-6.210143510543E-12 0.000000000000E+00
     1.120000000000E+02-1.804687500000E+02 2.672611324989E-09 1.442223176373E+00
    -8.229166269302E-06 1.743810717016E-04 1.187995076180E-05 5.440625886917E+03
     2.958000000000E+05-2.048909664154E-08 3.141099799415E-01 3.166496753693E-08
     9.694222551624E-01 8.968750000000E+01 6.588963396659E-01-5.171286833425E-09
     3.417999516257E-10 2.580000000000E+02 2.347000000000E+03
     3.120000000000E+00 0.000000000000E+00-5.820766091347E-09 0.000000000000E+00
     2.969900000000E+05
